{
  "type": "FeatureCollection",
  "name": "고양 서오릉 지정유산 구역",
  "crs": {
    "type": "name",
    "properties": {
      "name": "urn:ogc:def:crs:OGC:1.3:CRS84"
    }
  },
  "features": [
    {
      "type": "Feature",
      "properties": {
        "유산코드": "13000198000000031",
        "종목코드": "13",
        "종목명": "사적",
        "국가유산명": "고양 서오릉",
        "면적": 1883765,
        "시도코드": "ADDR410000",
        "시도명": "경기도",
        "시군구코드": "ADD1412800",
        "시군구명": "고양시",
        "source": "국가유산청 국가유산공간정보서비스",
        "sourceCrs": "EPSG:5179"
      },
      "geometry": {
        "type": "Polygon",
        "coordinates": [
          [
            [
              126.89022266380562,
              37.6347732779991
            ],
            [
              126.89046502471973,
              37.634759147026394
            ],
            [
              126.89062435762249,
              37.634748879328626
            ],
            [
              126.89072916226439,
              37.634742783561045
            ],
            [
              126.89087043745866,
              37.63473362479617
            ],
            [
              126.89100569271231,
              37.634725304890296
            ],
            [
              126.89105791798438,
              37.63472225668304
            ],
            [
              126.89119441274812,
              37.634713656165815
            ],
            [
              126.89125000178625,
              37.63471032946312
            ],
            [
              126.89130293303592,
              37.63470868958459
            ],
            [
              126.89146954177579,
              37.63468603909948
            ],
            [
              126.89150371478105,
              37.634680439857064
            ],
            [
              126.89151844098986,
              37.63465764759133
            ],
            [
              126.89159951498489,
              37.634538062057636
            ],
            [
              126.8917089345861,
              37.63452324149783
            ],
            [
              126.89183854049124,
              37.63450421626978
            ],
            [
              126.891907410301,
              37.63449780449095
            ],
            [
              126.89201437503549,
              37.63470822576945
            ],
            [
              126.89211169310352,
              37.63473731626271
            ],
            [
              126.89222449039843,
              37.63483371277761
            ],
            [
              126.89231961690787,
              37.63490897616912
            ],
            [
              126.89244674470484,
              37.63501129839604
            ],
            [
              126.89249922749691,
              37.63507441532755
            ],
            [
              126.8925289175302,
              37.63510822941375
            ],
            [
              126.89259853855685,
              37.635193886567556
            ],
            [
              126.89260641571411,
              37.63525470982122
            ],
            [
              126.89265676799188,
              37.63532232960118
            ],
            [
              126.89271842711827,
              37.635405445336126
            ],
            [
              126.89267415671621,
              37.63553717246245
            ],
            [
              126.89263643764016,
              37.635546428991546
            ],
            [
              126.89252200707288,
              37.63559756643309
            ],
            [
              126.89245062178655,
              37.63562875312364
            ],
            [
              126.8923590028578,
              37.635696241706604
            ],
            [
              126.89225161109965,
              37.6357758224963
            ],
            [
              126.89219597593761,
              37.63581012072599
            ],
            [
              126.891962625777,
              37.63607512951136
            ],
            [
              126.89181863488763,
              37.63612370481564
            ],
            [
              126.89155066899023,
              37.63621214533389
            ],
            [
              126.89109413419641,
              37.63632659356947
            ],
            [
              126.89133189573343,
              37.63631358274032
            ],
            [
              126.89218533115081,
              37.63703431380914
            ],
            [
              126.8928193713652,
              37.63780692444997
            ],
            [
              126.89315296013451,
              37.63812426261932
            ],
            [
              126.89315437471774,
              37.638125390139884
            ],
            [
              126.89326027317126,
              37.638222623942816
            ],
            [
              126.89342698218506,
              37.638380166214525
            ],
            [
              126.89377542374405,
              37.638713283299765
            ],
            [
              126.89446771219161,
              37.63938035482954
            ],
            [
              126.89514055636128,
              37.640035579379436
            ],
            [
              126.89561468811102,
              37.64050648471395
            ],
            [
              126.89641782820567,
              37.63979486810374
            ],
            [
              126.89688309822854,
              37.63838412648516
            ],
            [
              126.8990571293093,
              37.63726206543686
            ],
            [
              126.90058447880395,
              37.63675855304963
            ],
            [
              126.90059830610902,
              37.63674420555089
            ],
            [
              126.90127725863694,
              37.63603751706375
            ],
            [
              126.90162919891196,
              37.63470070852132
            ],
            [
              126.90347359689649,
              37.63440690377706
            ],
            [
              126.90426463933531,
              37.63404125466653
            ],
            [
              126.90448950164351,
              37.63400314823578
            ],
            [
              126.90565495953106,
              37.63347336861037
            ],
            [
              126.90613619592406,
              37.63325245591117
            ],
            [
              126.90623027691329,
              37.63318552169251
            ],
            [
              126.9066925302026,
              37.63285591091116
            ],
            [
              126.90689054391748,
              37.631930878034844
            ],
            [
              126.90722487643382,
              37.63098568168055
            ],
            [
              126.90726821135178,
              37.630871404682466
            ],
            [
              126.90805920331968,
              37.63007720199307
            ],
            [
              126.9083476086202,
              37.63003041025972
            ],
            [
              126.908726373217,
              37.62934540196345
            ],
            [
              126.90874531894914,
              37.62919816317855
            ],
            [
              126.90877191574444,
              37.62901883303873
            ],
            [
              126.90880943303844,
              37.628312720507964
            ],
            [
              126.9088416342857,
              37.62803851040514
            ],
            [
              126.9088788249208,
              37.627737274834125
            ],
            [
              126.90890606366145,
              37.6274678472404
            ],
            [
              126.90866532976628,
              37.626622708785646
            ],
            [
              126.90857264872633,
              37.62628448714484
            ],
            [
              126.90836215626247,
              37.62603289169884
            ],
            [
              126.90797495695455,
              37.62569105800982
            ],
            [
              126.90772602119144,
              37.62547012052604
            ],
            [
              126.90742755234528,
              37.625089219220726
            ],
            [
              126.9073893551793,
              37.625062159381855
            ],
            [
              126.90661257076624,
              37.62446294911803
            ],
            [
              126.90625045884346,
              37.62430836462577
            ],
            [
              126.90530193422258,
              37.6239035621241
            ],
            [
              126.90450308769725,
              37.6235512445546
            ],
            [
              126.90143338410547,
              37.6223154652642
            ],
            [
              126.90078480857203,
              37.62290223942589
            ],
            [
              126.90040186093766,
              37.623248507436486
            ],
            [
              126.9001870812708,
              37.62344372310736
            ],
            [
              126.89980142954818,
              37.62356220797041
            ],
            [
              126.89964597897684,
              37.62372903660958
            ],
            [
              126.89952127609497,
              37.62380185190309
            ],
            [
              126.89935156650462,
              37.62391123039046
            ],
            [
              126.89934288687776,
              37.62391629088407
            ],
            [
              126.89915122565506,
              37.62402846563195
            ],
            [
              126.89893613600803,
              37.62418763955721
            ],
            [
              126.89887626709749,
              37.624348919094246
            ],
            [
              126.8988381601778,
              37.62438745911535
            ],
            [
              126.89874670294485,
              37.624480292981346
            ],
            [
              126.89862275328872,
              37.624647147674395
            ],
            [
              126.89861335428978,
              37.6246603726102
            ],
            [
              126.89854149324864,
              37.62478926256657
            ],
            [
              126.8984190309157,
              37.62490374892139
            ],
            [
              126.89827693914013,
              37.625005547955226
            ],
            [
              126.89827534461607,
              37.62500667278412
            ],
            [
              126.89811978199431,
              37.62512197452672
            ],
            [
              126.89805560388308,
              37.62519793838614
            ],
            [
              126.8980385232106,
              37.625262118169466
            ],
            [
              126.898006931485,
              37.6253243143297
            ],
            [
              126.89790877506367,
              37.625523851360555
            ],
            [
              126.89781421088063,
              37.625685381407166
            ],
            [
              126.89771457363261,
              37.62580354729622
            ],
            [
              126.89757782402636,
              37.62588029169211
            ],
            [
              126.89750112214875,
              37.625924428386874
            ],
            [
              126.8974616240218,
              37.625944102478336
            ],
            [
              126.89739901867058,
              37.62603358204051
            ],
            [
              126.89734150291484,
              37.626154037212885
            ],
            [
              126.89715111548423,
              37.62636165724312
            ],
            [
              126.89706655632621,
              37.6264547774296
            ],
            [
              126.89698642708078,
              37.62654424125136
            ],
            [
              126.89683840749085,
              37.62670431534042
            ],
            [
              126.89678060307567,
              37.626777187023364
            ],
            [
              126.89676199076305,
              37.626796597857954
            ],
            [
              126.89668027054672,
              37.62688408916263
            ],
            [
              126.89660883479074,
              37.626958356426734
            ],
            [
              126.89648899123735,
              37.62709395975091
            ],
            [
              126.8963062196332,
              37.627294827819355
            ],
            [
              126.89626637003587,
              37.627311967189364
            ],
            [
              126.89613785298648,
              37.62744699929956
            ],
            [
              126.89604087332437,
              37.62755981654889
            ],
            [
              126.89597864479349,
              37.627630994537576
            ],
            [
              126.8958150589867,
              37.627780917376725
            ],
            [
              126.89567076174778,
              37.627808943612
            ],
            [
              126.89552451496934,
              37.62783865725439
            ],
            [
              126.8952723881941,
              37.627890799895965
            ],
            [
              126.89500397677179,
              37.62794292729972
            ],
            [
              126.89476937502991,
              37.62799339534824
            ],
            [
              126.89449830581971,
              37.628046926974996
            ],
            [
              126.8943579024619,
              37.62807439202276
            ],
            [
              126.89417270656506,
              37.62810913661474
            ],
            [
              126.89393775825697,
              37.62815369002034
            ],
            [
              126.89342624082522,
              37.62825936910028
            ],
            [
              126.89317127943836,
              37.62806739575989
            ],
            [
              126.89316549390787,
              37.6280290988559
            ],
            [
              126.89306763147566,
              37.628014931162205
            ],
            [
              126.89297684225427,
              37.6280055563428
            ],
            [
              126.89282198728003,
              37.62798964667234
            ],
            [
              126.89275916053859,
              37.62798311299831
            ],
            [
              126.89248572169869,
              37.627961462412735
            ],
            [
              126.89229226415456,
              37.62795649704875
            ],
            [
              126.89210217011089,
              37.62795125293061
            ],
            [
              126.89202128170434,
              37.627949770119294
            ],
            [
              126.89147318970168,
              37.62861063483373
            ],
            [
              126.89109405075973,
              37.629204926436216
            ],
            [
              126.88992718493652,
              37.63006003969231
            ],
            [
              126.88939938306383,
              37.631095664301675
            ],
            [
              126.8900828928527,
              37.63424917128852
            ],
            [
              126.89017325717548,
              37.6346668034101
            ],
            [
              126.89022266380562,
              37.6347732779991
            ]
          ]
        ]
      }
    }
  ]
}
